{
  "type": "FeatureCollection",
  "features": [
    {
      "type": "Feature",
      "properties": {
        "norad_id": 32364,
        "name": "FENGYUN 1C DEB",
        "group": "fengyun-1c-debris",
        "lat": -35.09176932448257,
        "lon": -5.376611727386767,
        "alt_km": 756.4875934332304,
        "timestamp": "2025-12-07T03:52:32.783853+00:00",
        "meta_object_name": "FENGYUN 1C DEB",
        "meta_object_id": "1999-025CZH",
        "meta_epoch": "2025-11-29T08:05:37.624992",
        "meta_mean_motion": 14.14317962,
        "meta_eccentricity": 0.01349396,
        "meta_inclination": 98.2918,
        "meta_ra_of_asc_node": 173.2369,
        "meta_arg_of_pericenter": 222.8285,
        "meta_mean_anomaly": 136.2316,
        "meta_ephemeris_type": 0,
        "meta_classification_type": "U",
        "meta_norad_cat_id": 32364,
        "meta_element_set_no": 999,
        "meta_rev_at_epoch": 63519,
        "meta_bstar": 0.0022712328,
        "meta_mean_motion_dot": 4.699e-05,
        "meta_mean_motion_ddot": 0,
        "tle_line1": "1 32364U 99025CZH 25333.33724103  .00004699  00000+0  22712-2 0  9995",
        "tle_line2": "2 32364  98.2918 173.2369 0134939 222.8285 136.2316 14.14317962635190"
      },
      "geometry": {
        "type": "Point",
        "coordinates": [
          -5.376611727386767,
          -35.09176932448257
        ]
      }
    },
    {
      "type": "Feature",
      "properties": {
        "norad_id": 32366,
        "name": "FENGYUN 1C DEB",
        "group": "fengyun-1c-debris",
        "lat": -74.70242969567974,
        "lon": 130.64219047608813,
        "alt_km": 755.5386438034402,
        "timestamp": "2025-12-07T03:52:32.783863+00:00",
        "meta_object_name": "FENGYUN 1C DEB",
        "meta_object_id": "1999-025CZK",
        "meta_epoch": "2025-12-06T14:38:24.855360",
        "meta_mean_motion": 14.13771358,
        "meta_eccentricity": 0.01360226,
        "meta_inclination": 96.7768,
        "meta_ra_of_asc_node": 104.4557,
        "meta_arg_of_pericenter": 285.4089,
        "meta_mean_anomaly": 73.2098,
        "meta_ephemeris_type": 0,
        "meta_classification_type": "U",
        "meta_norad_cat_id": 32366,
        "meta_element_set_no": 999,
        "meta_rev_at_epoch": 93117,
        "meta_bstar": 0.0026694877,
        "meta_mean_motion_dot": 5.49e-05,
        "meta_mean_motion_ddot": 0,
        "tle_line1": "1 32366U 99025CZK 25340.61000990  .00005490  00000+0  26695-2 0  9991",
        "tle_line2": "2 32366  96.7768 104.4557 0136022 285.4089  73.2098 14.13771358931171"
      },
      "geometry": {
        "type": "Point",
        "coordinates": [
          130.64219047608813,
          -74.70242969567974
        ]
      }
    },
    {
      "type": "Feature",
      "properties": {
        "norad_id": 32372,
        "name": "FENGYUN 1C DEB",
        "group": "fengyun-1c-debris",
        "lat": 8.846149625646357,
        "lon": 44.97718336385003,
        "alt_km": 1267.738802519084,
        "timestamp": "2025-12-07T03:52:32.783873+00:00",
        "meta_object_name": "FENGYUN 1C DEB",
        "meta_object_id": "1999-025CZR",
        "meta_epoch": "2025-12-06T10:52:59.566080",
        "meta_mean_motion": 13.35338377,
        "meta_eccentricity": 0.0458207,
        "meta_inclination": 97.3125,
        "meta_ra_of_asc_node": 223.3226,
        "meta_arg_of_pericenter": 56.5168,
        "meta_mean_anomaly": 307.8892,
        "meta_ephemeris_type": 0,
        "meta_classification_type": "U",
        "meta_norad_cat_id": 32372,
        "meta_element_set_no": 999,
        "meta_rev_at_epoch": 60056,
        "meta_bstar": 0.003456202,
        "meta_mean_motion_dot": 3.164e-05,
        "meta_mean_motion_ddot": 0,
        "tle_line1": "1 32372U 99025CZR 25340.45346720  .00003164  00000+0  34562-2 0  9992",
        "tle_line2": "2 32372  97.3125 223.3226 0458207  56.5168 307.8892 13.35338377600560"
      },
      "geometry": {
        "type": "Point",
        "coordinates": [
          44.97718336385003,
          8.846149625646357
        ]
      }
    },
    {
      "type": "Feature",
      "properties": {
        "norad_id": 32409,
        "name": "FENGYUN 1C DEB",
        "group": "fengyun-1c-debris",
        "lat": -75.72839133798685,
        "lon": -77.53574438677454,
        "alt_km": 648.6207697345044,
        "timestamp": "2025-12-07T03:52:32.783884+00:00",
        "meta_object_name": "FENGYUN 1C DEB",
        "meta_object_id": "1999-025CZV",
        "meta_epoch": "2025-12-04T05:32:26.392128",
        "meta_mean_motion": 14.75878452,
        "meta_eccentricity": 0.0039355,
        "meta_inclination": 99.5656,
        "meta_ra_of_asc_node": 140.5258,
        "meta_arg_of_pericenter": 178.9969,
        "meta_mean_anomaly": 357.0191,
        "meta_ephemeris_type": 0,
        "meta_classification_type": "U",
        "meta_norad_cat_id": 32409,
        "meta_element_set_no": 999,
        "meta_rev_at_epoch": 58713,
        "meta_bstar": 0.0044455,
        "meta_mean_motion_dot": 0.00030976,
        "meta_mean_motion_ddot": 0,
        "tle_line1": "1 32409U 99025CZV 25338.23086102  .00030976  00000+0  44455-2 0  9994",
        "tle_line2": "2 32409  99.5656 140.5258 0039355 178.9969 357.0191 14.75878452587130"
      },
      "geometry": {
        "type": "Point",
        "coordinates": [
          -77.53574438677454,
          -75.72839133798685
        ]
      }
    },
    {
      "type": "Feature",
      "properties": {
        "norad_id": 32411,
        "name": "FENGYUN 1C DEB",
        "group": "fengyun-1c-debris",
        "lat": 67.87093918834563,
        "lon": 100.85536155664863,
        "alt_km": 834.0101679375566,
        "timestamp": "2025-12-07T03:52:32.783895+00:00",
        "meta_object_name": "FENGYUN 1C DEB",
        "meta_object_id": "1999-025CZX",
        "meta_epoch": "2025-12-04T00:25:02.853696",
        "meta_mean_motion": 14.09783201,
        "meta_eccentricity": 0.0124615,
        "meta_inclination": 98.4286,
        "meta_ra_of_asc_node": 256.5257,
        "meta_arg_of_pericenter": 41.2219,
        "meta_mean_anomaly": 319.8282,
        "meta_ephemeris_type": 0,
        "meta_classification_type": "U",
        "meta_norad_cat_id": 32411,
        "meta_element_set_no": 999,
        "meta_rev_at_epoch": 65691,
        "meta_bstar": 0.00077808589,
        "meta_mean_motion_dot": 1.43e-05,
        "meta_mean_motion_ddot": 0,
        "tle_line1": "1 32411U 99025CZX 25338.01739414  .00001430  00000+0  77809-3 0  9997",
        "tle_line2": "2 32411  98.4286 256.5257 0124615  41.2219 319.8282 14.09783201656915"
      },
      "geometry": {
        "type": "Point",
        "coordinates": [
          100.85536155664863,
          67.87093918834563
        ]
      }
    },
    {
      "type": "Feature",
      "properties": {
        "norad_id": 32414,
        "name": "FENGYUN 1C DEB",
        "group": "fengyun-1c-debris",
        "lat": 35.466460921276656,
        "lon": 45.4514613331187,
        "alt_km": 798.0952463240819,
        "timestamp": "2025-12-07T03:52:32.783905+00:00",
        "meta_object_name": "FENGYUN 1C DEB",
        "meta_object_id": "1999-025DAA",
        "meta_epoch": "2025-12-06T10:46:40.718496",
        "meta_mean_motion": 14.18361009,
        "meta_eccentricity": 0.00451012,
        "meta_inclination": 98.8585,
        "meta_ra_of_asc_node": 51.1193,
        "meta_arg_of_pericenter": 16.8201,
        "meta_mean_anomaly": 343.4457,
        "meta_ephemeris_type": 0,
        "meta_classification_type": "U",
        "meta_norad_cat_id": 32414,
        "meta_element_set_no": 999,
        "meta_rev_at_epoch": 93643,
        "meta_bstar": 0.0023439519,
        "meta_mean_motion_dot": 4.84e-05,
        "meta_mean_motion_ddot": 0,
        "tle_line1": "1 32414U 99025DAA 25340.44908239  .00004840  00000+0  23440-2 0  9992",
        "tle_line2": "2 32414  98.8585  51.1193 0045101  16.8201 343.4457 14.18361009936436"
      },
      "geometry": {
        "type": "Point",
        "coordinates": [
          45.4514613331187,
          35.466460921276656
        ]
      }
    },
    {
      "type": "Feature",
      "properties": {
        "norad_id": 32419,
        "name": "FENGYUN 1C DEB",
        "group": "fengyun-1c-debris",
        "lat": 2.2655491672159385,
        "lon": -83.24123554085105,
        "alt_km": 708.3404231130407,
        "timestamp": "2025-12-07T03:52:32.783915+00:00",
        "meta_object_name": "FENGYUN 1C DEB",
        "meta_object_id": "1999-025DAF",
        "meta_epoch": "2025-12-01T13:18:33.510528",
        "meta_mean_motion": 14.09844164,
        "meta_eccentricity": 0.02843724,
        "meta_inclination": 97.9442,
        "meta_ra_of_asc_node": 272.1151,
        "meta_arg_of_pericenter": 61.2588,
        "meta_mean_anomaly": 301.6841,
        "meta_ephemeris_type": 0,
        "meta_classification_type": "U",
        "meta_norad_cat_id": 32419,
        "meta_element_set_no": 999,
        "meta_rev_at_epoch": 63413,
        "meta_bstar": 0.00077117327,
        "meta_mean_motion_dot": 1.939e-05,
        "meta_mean_motion_ddot": 0,
        "tle_line1": "1 32419U 99025DAF 25335.55455452  .00001939  00000+0  77117-3 0  9994",
        "tle_line2": "2 32419  97.9442 272.1151 0284372  61.2588 301.6841 14.09844164634132"
      },
      "geometry": {
        "type": "Point",
        "coordinates": [
          -83.24123554085105,
          2.2655491672159385
        ]
      }
    }
  ]
}